[{"OBJECT_NAME":"GENMAT-1","OBJECT_ID":"2023-174W","EPOCH":"2026-03-09T18:03:23.351040","MEAN_MOTION":15.32594666,"ECCENTRICITY":0.00074416,"INCLINATION":97.3728,"RA_OF_ASC_NODE":146.8236,"ARG_OF_PERICENTER":169.2515,"MEAN_ANOMALY":190.8888,"EPHEMERIS_TYPE":0,"CLASSIFICATION_TYPE":"U","NORAD_CAT_ID":58276,"ELEMENT_SET_NO":999,"REV_AT_EPOCH":12973,"BSTAR":0.00042157222,"MEAN_MOTION_DOT":0.0001321,"MEAN_MOTION_DDOT":0},{"OBJECT_NAME":"STARLINK-35279","OBJECT_ID":"2025-235M","EPOCH":"2026-03-09T21:17:33.186624","MEAN_MOTION":15.30200113,"ECCENTRICITY":0.00012273,"INCLINATION":53.1593,"RA_OF_ASC_NODE":244.2127,"ARG_OF_PERICENTER":79.9191,"MEAN_ANOMALY":280.1948,"EPHEMERIS_TYPE":0,"CLASSIFICATION_TYPE":"U","NORAD_CAT_ID":66069,"ELEMENT_SET_NO":999,"REV_AT_EPOCH":2295,"BSTAR":0.0013731138,"MEAN_MOTION_DOT":0.00040531,"MEAN_MOTION_DDOT":0}]
